CCSDS_OMM_VERS = 2.0
CREATION_DATE  = 
ORIGINATOR     = 

OBJECT_NAME    = STARLINK-37020
OBJECT_ID      = 2026-049C
CENTER_NAME    = EARTH
REF_FRAME      = TEME
TIME_SYSTEM    = UTC
MEAN_ELEMENT_THEORY = SGP/SGP4

EPOCH          = 2026-03-28T12:39:31.362912
MEAN_MOTION    = 15.80883846
ECCENTRICITY   = .00009895
INCLINATION    = 97.2834
RA_OF_ASC_NODE = 107.7012
ARG_OF_PERICENTER = 132.9457
MEAN_ANOMALY   = 227.1894

EPHEMERIS_TYPE = 0
CLASSIFICATION_TYPE = U
NORAD_CAT_ID   = 68144
ELEMENT_SET_NO = 999
REV_AT_EPOCH   = 238
BSTAR          = .98066087E-3
MEAN_MOTION_DOT = .192498E-2
MEAN_MOTION_DDOT = 0

CCSDS_OMM_VERS = 2.0
CREATION_DATE  = 
ORIGINATOR     = 

OBJECT_NAME    = STARLINK-36244
OBJECT_ID      = 2026-049D
CENTER_NAME    = EARTH
REF_FRAME      = TEME
TIME_SYSTEM    = UTC
MEAN_ELEMENT_THEORY = SGP/SGP4

EPOCH          = 2026-03-28T14:00:01.999872
MEAN_MOTION    = 15.75180097
ECCENTRICITY   = .00012273
INCLINATION    = 97.2845
RA_OF_ASC_NODE = 107.7524
ARG_OF_PERICENTER = 99.9787
MEAN_ANOMALY   = 203.6915

EPHEMERIS_TYPE = 0
CLASSIFICATION_TYPE = U
NORAD_CAT_ID   = 68145
ELEMENT_SET_NO = 999
REV_AT_EPOCH   = 366
BSTAR          = .21339633E-4
MEAN_MOTION_DOT = .3053E-4
MEAN_MOTION_DDOT = 0

CCSDS_OMM_VERS = 2.0
CREATION_DATE  = 
ORIGINATOR     = 

OBJECT_NAME    = STARLINK-36980
OBJECT_ID      = 2026-049E
CENTER_NAME    = EARTH
REF_FRAME      = TEME
TIME_SYSTEM    = UTC
MEAN_ELEMENT_THEORY = SGP/SGP4

EPOCH          = 2026-03-28T14:09:35.764128
MEAN_MOTION    = 15.80867354
ECCENTRICITY   = .00012703
INCLINATION    = 97.2841
RA_OF_ASC_NODE = 107.7688
ARG_OF_PERICENTER = 81.0857
MEAN_ANOMALY   = 279.0555

EPHEMERIS_TYPE = 0
CLASSIFICATION_TYPE = U
NORAD_CAT_ID   = 68146
ELEMENT_SET_NO = 999
REV_AT_EPOCH   = 239
BSTAR          = .72552575E-3
MEAN_MOTION_DOT = .141436E-2
MEAN_MOTION_DDOT = 0

CCSDS_OMM_VERS = 2.0
CREATION_DATE  = 
ORIGINATOR     = 

OBJECT_NAME    = STARLINK-37055
OBJECT_ID      = 2026-049F
CENTER_NAME    = EARTH
REF_FRAME      = TEME
TIME_SYSTEM    = UTC
MEAN_ELEMENT_THEORY = SGP/SGP4

EPOCH          = 2026-03-28T14:11:45.503232
MEAN_MOTION    = 15.80873216
ECCENTRICITY   = .00011118
INCLINATION    = 97.2841
RA_OF_ASC_NODE = 107.7667
ARG_OF_PERICENTER = 85.5721
MEAN_ANOMALY   = 274.5675

EPHEMERIS_TYPE = 0
CLASSIFICATION_TYPE = U
NORAD_CAT_ID   = 68147
ELEMENT_SET_NO = 999
REV_AT_EPOCH   = 239
BSTAR          = .66544419E-3
MEAN_MOTION_DOT = .129569E-2
MEAN_MOTION_DDOT = 0

CCSDS_OMM_VERS = 2.0
CREATION_DATE  = 
ORIGINATOR     = 

OBJECT_NAME    = STARLINK-36981
OBJECT_ID      = 2026-049G
CENTER_NAME    = EARTH
REF_FRAME      = TEME
TIME_SYSTEM    = UTC
MEAN_ELEMENT_THEORY = SGP/SGP4

EPOCH          = 2026-03-28T14:07:25.949856
MEAN_MOTION    = 15.80895604
ECCENTRICITY   = .00014004
INCLINATION    = 97.2837
RA_OF_ASC_NODE = 107.7707
ARG_OF_PERICENTER = 100.5484
MEAN_ANOMALY   = 259.5942

EPHEMERIS_TYPE = 0
CLASSIFICATION_TYPE = U
NORAD_CAT_ID   = 68148
ELEMENT_SET_NO = 999
REV_AT_EPOCH   = 239
BSTAR          = .11597986E-2
MEAN_MOTION_DOT = .228768E-2
MEAN_MOTION_DDOT = 0

CCSDS_OMM_VERS = 2.0
CREATION_DATE  = 
ORIGINATOR     = 

OBJECT_NAME    = STARLINK-36992
OBJECT_ID      = 2026-049H
CENTER_NAME    = EARTH
REF_FRAME      = TEME
TIME_SYSTEM    = UTC
MEAN_ELEMENT_THEORY = SGP/SGP4

EPOCH          = 2026-03-28T14:06:20.780928
MEAN_MOTION    = 15.80883829
ECCENTRICITY   = .00015572
INCLINATION    = 97.2840
RA_OF_ASC_NODE = 107.7710
ARG_OF_PERICENTER = 117.5652
MEAN_ANOMALY   = 242.5774

EPHEMERIS_TYPE = 0
CLASSIFICATION_TYPE = U
NORAD_CAT_ID   = 68149
ELEMENT_SET_NO = 999
REV_AT_EPOCH   = 239
BSTAR          = .81164248E-3
MEAN_MOTION_DOT = .158677E-2
MEAN_MOTION_DDOT = 0

CCSDS_OMM_VERS = 2.0
CREATION_DATE  = 
ORIGINATOR     = 

OBJECT_NAME    = STARLINK-37060
OBJECT_ID      = 2026-049J
CENTER_NAME    = EARTH
REF_FRAME      = TEME
TIME_SYSTEM    = UTC
MEAN_ELEMENT_THEORY = SGP/SGP4

EPOCH          = 2026-03-28T14:00:01.999872
MEAN_MOTION    = 15.80834729
ECCENTRICITY   = .00013725
INCLINATION    = 97.2845
RA_OF_ASC_NODE = 107.7672
ARG_OF_PERICENTER = 81.5080
MEAN_ANOMALY   = 257.9441

EPHEMERIS_TYPE = 0
CLASSIFICATION_TYPE = U
NORAD_CAT_ID   = 68150
ELEMENT_SET_NO = 999
REV_AT_EPOCH   = 365
BSTAR          = -.34625832E-3
MEAN_MOTION_DOT = -.66025E-3
MEAN_MOTION_DDOT = 0

CCSDS_OMM_VERS = 2.0
CREATION_DATE  = 
ORIGINATOR     = 

OBJECT_NAME    = STARLINK-37073
OBJECT_ID      = 2026-049K
CENTER_NAME    = EARTH
REF_FRAME      = TEME
TIME_SYSTEM    = UTC
MEAN_ELEMENT_THEORY = SGP/SGP4

EPOCH          = 2026-03-28T14:00:01.999872
MEAN_MOTION    = 15.80802725
ECCENTRICITY   = .00012773
INCLINATION    = 97.2844
RA_OF_ASC_NODE = 107.7699
ARG_OF_PERICENTER = 78.8215
MEAN_ANOMALY   = 264.9199

EPHEMERIS_TYPE = 0
CLASSIFICATION_TYPE = U
NORAD_CAT_ID   = 68151
ELEMENT_SET_NO = 999
REV_AT_EPOCH   = 365
BSTAR          = -.59948546E-4
MEAN_MOTION_DOT = -.11602E-3
MEAN_MOTION_DDOT = 0

CCSDS_OMM_VERS = 2.0
CREATION_DATE  = 
ORIGINATOR     = 

OBJECT_NAME    = STARLINK-37049
OBJECT_ID      = 2026-049L
CENTER_NAME    = EARTH
REF_FRAME      = TEME
TIME_SYSTEM    = UTC
MEAN_ELEMENT_THEORY = SGP/SGP4

EPOCH          = 2026-03-28T14:00:01.999872
MEAN_MOTION    = 15.80791513
ECCENTRICITY   = .00013341
INCLINATION    = 97.2847
RA_OF_ASC_NODE = 107.7719
ARG_OF_PERICENTER = 103.4991
MEAN_ANOMALY   = 244.5198

EPHEMERIS_TYPE = 0
CLASSIFICATION_TYPE = U
NORAD_CAT_ID   = 68152
ELEMENT_SET_NO = 999
REV_AT_EPOCH   = 365
BSTAR          = .20890336E-4
MEAN_MOTION_DOT = .3857E-4
MEAN_MOTION_DDOT = 0

CCSDS_OMM_VERS = 2.0
CREATION_DATE  = 
ORIGINATOR     = 

OBJECT_NAME    = STARLINK-37072
OBJECT_ID      = 2026-049M
CENTER_NAME    = EARTH
REF_FRAME      = TEME
TIME_SYSTEM    = UTC
MEAN_ELEMENT_THEORY = SGP/SGP4

EPOCH          = 2026-03-28T14:00:01.999872
MEAN_MOTION    = 15.80841279
ECCENTRICITY   = .00011923
INCLINATION    = 97.2845
RA_OF_ASC_NODE = 107.7727
ARG_OF_PERICENTER = 104.0217
MEAN_ANOMALY   = 248.2493

EPHEMERIS_TYPE = 0
CLASSIFICATION_TYPE = U
NORAD_CAT_ID   = 68153
ELEMENT_SET_NO = 999
REV_AT_EPOCH   = 365
BSTAR          = -.42816553E-3
MEAN_MOTION_DOT = -.81488E-3
MEAN_MOTION_DDOT = 0

CCSDS_OMM_VERS = 2.0
CREATION_DATE  = 
ORIGINATOR     = 

OBJECT_NAME    = STARLINK-36241
OBJECT_ID      = 2026-049N
CENTER_NAME    = EARTH
REF_FRAME      = TEME
TIME_SYSTEM    = UTC
MEAN_ELEMENT_THEORY = SGP/SGP4

EPOCH          = 2026-03-28T14:00:01.999872
MEAN_MOTION    = 15.75189039
ECCENTRICITY   = .00013815
INCLINATION    = 97.2850
RA_OF_ASC_NODE = 107.7630
ARG_OF_PERICENTER = 107.2131
MEAN_ANOMALY   = 218.4775

EPHEMERIS_TYPE = 0
CLASSIFICATION_TYPE = U
NORAD_CAT_ID   = 68154
ELEMENT_SET_NO = 999
REV_AT_EPOCH   = 366
BSTAR          = -.31526022E-3
MEAN_MOTION_DOT = -.46894E-3
MEAN_MOTION_DDOT = 0

CCSDS_OMM_VERS = 2.0
CREATION_DATE  = 
ORIGINATOR     = 

OBJECT_NAME    = STARLINK-37048
OBJECT_ID      = 2026-049P
CENTER_NAME    = EARTH
REF_FRAME      = TEME
TIME_SYSTEM    = UTC
MEAN_ELEMENT_THEORY = SGP/SGP4

EPOCH          = 2026-03-28T14:00:01.999872
MEAN_MOTION    = 15.80873720
ECCENTRICITY   = .00011876
INCLINATION    = 97.2844
RA_OF_ASC_NODE = 107.7798
ARG_OF_PERICENTER = 94.7267
MEAN_ANOMALY   = 274.6310

EPHEMERIS_TYPE = 0
CLASSIFICATION_TYPE = U
NORAD_CAT_ID   = 68155
ELEMENT_SET_NO = 999
REV_AT_EPOCH   = 365
BSTAR          = -.7281161E-3
MEAN_MOTION_DOT = -.137794E-2
MEAN_MOTION_DDOT = 0

