STARLINK-37020          
1 68144U 26049C   26087.52744633  .00192498  00000+0  98066-3 0  9995
2 68144  97.2834 107.7012 0000989 132.9457 227.1894 15.80883846  2380
STARLINK-36244          
1 68145U 26049D   26087.58335648  .00003053  00000+0  21340-4 0  9994
2 68145  97.2845 107.7524 0001227  99.9787 203.6915 15.75180097  3662
STARLINK-36980          
1 68146U 26049E   26087.58999727  .00141436  00000+0  72553-3 0  9998
2 68146  97.2841 107.7688 0001270  81.0857 279.0555 15.80867354  2398
STARLINK-37055          
1 68147U 26049F   26087.59149888  .00129569  00000+0  66544-3 0  9991
2 68147  97.2841 107.7667 0001111  85.5721 274.5675 15.80873216  2396
STARLINK-36981          
1 68148U 26049G   26087.58849479  .00228768  00000+0  11598-2 0  9993
2 68148  97.2837 107.7707 0001400 100.5484 259.5942 15.80895604  2397
STARLINK-36992          
1 68149U 26049H   26087.58774052  .00158677  00000+0  81164-3 0  9996
2 68149  97.2840 107.7710 0001557 117.5652 242.5774 15.80883829  2395
STARLINK-37060          
1 68150U 26049J   26087.58335648 -.00066025  00000+0 -34626-3 0  9990
2 68150  97.2845 107.7672 0001372  81.5080 257.9441 15.80834729  3655
STARLINK-37073          
1 68151U 26049K   26087.58335648 -.00011602  00000+0 -59949-4 0  9998
2 68151  97.2844 107.7699 0001277  78.8215 264.9199 15.80802725  3656
STARLINK-37049          
1 68152U 26049L   26087.58335648  .00003857  00000+0  20890-4 0  9993
2 68152  97.2847 107.7719 0001334 103.4991 244.5198 15.80791513  3658
STARLINK-37072          
1 68153U 26049M   26087.58335648 -.00081488  00000+0 -42817-3 0  9994
2 68153  97.2845 107.7727 0001192 104.0217 248.2493 15.80841279  3650
STARLINK-36241          
1 68154U 26049N   26087.58335648 -.00046894  00000+0 -31526-3 0  9992
2 68154  97.2850 107.7630 0001381 107.2131 218.4775 15.75189039  3666
STARLINK-37048          
1 68155U 26049P   26087.58335648 -.00137794  00000+0 -72812-3 0  9996
2 68155  97.2844 107.7798 0001187  94.7267 274.6310 15.80873720  3650
